#dP2021  8 13 12  0  0.00000000      96 __u+U ITR00 EXT  IAC
## 2170 475200.00000000   900.00000000 59439 0.5000000000000
+  116   C06C07C08C09C10C11C12C13C14C16C19C20C21C22C23C24C25
+        C26C27C28C29C30C32C33C34C35C36C37C38C39C40C41C42C43
+        C44C45C46E01E02E03E04E05E07E08E09E11E12E13E14E15E18
+        E19E21E24E25E26E27E30E31E33E36G01G02G03G04G05G06G07
+        G08G09G10G12G13G14G15G16G17G18G19G20G21G22G23G24G25
+        G26G27G28G29G30G31G32J01J02J03R01R02R03R04R05R07R08
+        R09R11R12R13R14R15R16R17R18R19R20R21R22R24  0  0  0
++         9  8  8  9  9  8  8  9 10 10  8  9  8  9  7  8  9
++        10  9  8  8  8  9  9  8 10  8  8 10  9  9  8  9  9
++        10  9  9  7  8  9  7  7  8  9  7  9  8  8  8  8  8
++         8  8  9  8  8  8  7  7  8  9  8  6  7  8  6  7  7
++         8 13  8  9  7  6  7  8  8  8  6  8  8  8  7  9  9
++         7  7  8  9  8  8  8 11  9 10  9  8  7  8  9 10  9
++         9  9  9  8  7  9 10  9  8  8  9  9  7  9  0  0  0
%c M  cc GPS ccc cccc cccc cccc cccc ccccc ccccc ccccc ccccc
%c cc cc ccc ccc cccc cccc cccc cccc ccccc ccccc ccccc ccccc
%f  0.0000000  0.000000000  0.00000000000  0.000000000000000
%f  0.0000000  0.000000000  0.00000000000  0.000000000000000
%i    0    0    0    0      0      0      0      0         0
%i    0    0    0    0      0      0      0      0         0
/* IAC                                ULTRA-RAPID PREDICTION
/* S/V CLOCKS ARE ALIGNED TO GNSS TIME                      
/* G:C1WC2W R:C1PC2P E:C1XC5X C:C2IC6I J:C1CC2S             
/* PCV:IGS14_2163 OL/AL:FES2004  NONE     YN ORB:CoN CLK:CoN
*  2021 08 13 17 15  0.00000000
PC06 -17866.751654  33564.459289  18021.561419    753.151202
PC07  -9001.629536  34428.033880  23310.050255     14.410213
PC08 -14586.757473  17263.843370 -35528.949287   -920.584333
PC09  -9531.126549  31883.729430  25948.827121    -24.280865
PC10   1503.398579  40228.558018  13571.339841     -9.021053
PC11  19679.407518 -19122.209231   4992.105032    514.708977
PC12  23619.317807  -8093.392242 -12405.514101    783.438628
PC13   1839.073272  23414.034225 -34898.684133    372.201741
PC14   9169.946080 -19706.806106  17486.834431    723.697584
PC16 -20214.655370  33455.965090  15669.132869   -862.942720
PC19  -2777.621164  25956.896406  -9871.005047    945.555112
PC20 -13022.596556  12254.208314 -21421.883123   -820.754139
PC21  16010.022222   9634.691856  20746.907970   -940.731863
PC22   9367.636245  25125.909207   7781.185289   -950.634186
PC23 -15461.900769 -17709.049261 -15020.665492   -962.023015
PC24  22035.833720  -4087.691853 -16611.004432   -964.313422
PC25   3496.382507 -15954.260638 -22628.182004   -870.898437
PC26  26562.209726   8266.267519  -1966.572945    864.929912
PC27 -20626.477185   -369.837658  18765.469370    580.300100
PC28  -5753.252701 -15306.943583  22610.606823    -38.973130
PC29 -11654.314999  21695.529606 -13137.587827    432.831436
PC30 -22942.616182  15217.703715   4501.992714    477.311582
PC32 -16077.852804  -9529.101742 -20708.252464   -931.059155
PC33   2734.109102 -25909.495590   9972.625319   -956.733657
PC34  22801.581381 -15665.515202  -3748.731076   -605.893246
PC35   5964.851196  15397.009254 -22502.355575   -141.398950
PC36  -4325.375007  15722.092388  22679.101937   -743.134201
PC37 -26234.365757  -9482.004277   1081.930548   -861.638353
PC38 -12473.530783  20695.512154 -34560.911626    168.335378
PC39 -22792.000228  33990.361997   9781.976737     32.729109
PC40  -2542.151993  38943.025274  16203.622619    189.940733
PC41  -9239.607647 -25257.627845  -7403.238688   -961.278532
PC42  13429.204106 -11345.508545  21706.495620   -932.509237
PC43  12218.524980 -21690.588986  12615.332868   -866.188691
PC44  20619.502411    -67.957028 -18828.280248    339.135566
PC45  15640.446388  17591.509626  14987.970694    519.617207
PC46 -21300.872122   4849.233626  17396.892364    133.829255
PE01 -18773.122860   1800.719258  22822.916285  -1170.880413
PE02  18688.278450  -1940.955070 -22862.913076    239.655915
PE03  18600.216212 -13554.497200  18603.907560   -463.294046
PE04 -11286.857838  27253.810886  -2479.215077   -834.219862
PE05  15107.677578   8322.751194  24058.428966   -257.542750
PE07  -2854.725611 -25087.713289 -15431.420570   -573.340619
PE08  10936.378108 -27412.513547   2154.108039   5954.693050
PE09   3014.010192  24961.897574  15639.053662   5567.368784
PE11   7761.875151  14748.487720 -24477.763090   5582.873984
PE12 -14994.294825  16161.834805 -19754.279975   5062.218052
PE13  -7264.525429 -14792.923509  24585.283840    420.230866
PE14 -17685.842834  21847.973947   3823.418686  -1534.246545
PE15  14947.783766 -16149.678018  19794.804966    798.155832
PE18  22019.959001 -10847.417975 -14993.510526  -1682.620242
PE19 -18686.275035  11210.963266 -20027.872790    351.312172
PE21 -22864.912385 -15565.321178  10544.293037   -681.791252
PE24  13069.395670  24897.126160   9214.543173  -1060.837011
PE25  22830.286670  15749.538846 -10327.325503   -543.136758
PE26 -25675.086881  -4341.112828  14081.751005   1465.817402
PE27 -13919.007400 -24751.483188  -8351.681586    -97.117065
PE30   4260.908004 -18630.754002 -22605.821595   2704.895616
PE31  -3161.900351  19318.205833  22218.499194   -484.370517
PE33 -28302.156709   7992.731567  -3361.668688   -466.329042
PE36  25134.303283   4742.144710 -14901.614581   -247.895777
PG01  11439.746574  13381.574326 -20265.947015    598.715779
PG02  13781.497395 -14137.770881  18453.480140   -626.080010
PG03  11712.944815  23714.512240  -3111.708055   -252.955237
PG04   4163.694300  18402.405961  18675.190410   -203.845939
PG05  -3134.508099 -22396.241535  13628.515911    -51.009066
PG06  23776.582144  -6841.641092   9792.118054     55.454347
PG07  23775.465310   7220.282589  10416.324247    224.182370
PG08  -4144.816920  23728.165558 -10848.691321    -32.505363
PG09  13187.083389   7850.191801  21614.005917   -358.693260
PG10 -17398.141327  -2486.588184 -19881.153713   -181.763931
PG12  -9787.234301 -24562.593743  -3445.866246    -82.400506
PG13  12414.802319 -22812.451787  -5312.666570    170.851934
PG14  17311.824429   2265.654338 -20031.303809     24.634797
PG15    756.559231 -24035.864642 -11262.755130   -128.637514
PG16  -3823.271746  19308.240629  17363.300454   -373.125991
PG17  18217.941657  -6449.487866 -17793.614994    488.811330
PG18 -24787.741007  -5545.131399   7897.266782    333.088999
PG19  19432.649879 -13699.261257 -11956.307266     39.149620
PG20   6263.443627 -15865.240724  20385.606028    519.672169
PG21   3110.139678  14707.724796 -21222.939924    137.008882
PG22   8088.233343  23237.159114 -10084.981341   -539.175845
PG23 -19060.890911 -13331.232388 -12905.808809     71.309801
PG24  -6792.078707 -15053.922337 -21113.397499    207.159583
PG25 -16904.369905 -19631.720710   6198.387804    190.523085
PG26 -11967.919026  10135.381975  21363.302252    122.206127
PG27 -11851.511226  23504.864502  -1544.319896   -177.754908
PG28  14319.092223  -4002.610032 -21451.333801    520.518325
PG29 -10589.270364 -10471.243009  21938.797513   -395.656866
PG30  26629.038881   -912.464466  -1496.821277   -461.803411
PG31 -23069.755190   7676.546839  11135.695357   -134.074592
PG32 -18389.024901   9947.962909 -16162.958094      7.950191
PJ01 -20681.826279  30921.437047 -15308.324847   -438.779316
PJ02 -26245.672635  20957.200315  30451.066615     -1.530245
PJ03 -34995.371414  23325.810154    816.591896     -0.790826
PR01   6558.370520 -20821.622476  13182.989571     83.786927
PR02  -2342.801837 -24452.842470  -6948.190339    489.540306
PR03  -9265.685871 -12273.435601 -20326.994489     41.168331
PR04 -10624.442165   6649.703369 -22189.825804     99.996335
PR05  -6266.409354  21788.119508 -11659.690974     77.074322
PR07   9468.048012  11492.687072  20733.058188    -41.682843
PR08  10754.520229  -6742.244746  22182.072146    -60.367832
PR09  12039.600198  16217.927549  15648.819288      7.884767
PR11  19509.205813   2737.888116 -16197.013377     46.346608
PR12   5184.559635  -9691.593494 -22985.601643    253.347041
PR13 -11399.430673 -15939.947877 -16334.257746    -59.122973
PR14 -21934.253392 -12980.884544    748.878150     67.604232
PR15 -19191.077093  -2471.491357  16644.881206    102.091223
PR16  -4046.368642  10527.822860  22859.029680    -19.523753
PR17 -15636.362280  -2021.993617  20069.888947    449.482470
PR18 -23008.716843   8559.086386   6855.563368     86.809446
PR19 -19219.029243  14012.093128  -9239.960862   -155.278384
PR20  -1842.024006  11981.556806 -22436.543965    -54.090130
PR21  16471.979819   1222.500116 -19430.887607   -231.259994
PR22  23184.960881  -9012.213751  -5869.089973   -127.679107
PR24    696.890985 -12151.487255  22423.828925     54.364398
EOF
